STARLINK-32570          
1 62137U 24222Z   26068.52468026  .00033796  00000+0  12307-2 0  9998
2 62137  42.9984 137.1204 0001652 277.9857  82.0807 15.27615801 72879
BANDWAGON-2 OBJECT D    
1 62380U 24247D   26068.52261193  .00011259  00000+0  40119-3 0  9994
2 62380  44.9954 115.6710 0003488 351.1453   8.9368 15.29076102 67732
